{"type": "FeatureCollection", "features": [ {"type": "Feature", "properties": {"norad_id": 31074, "name": "FENGYUN 1C DEB", "group": "fengyun-1c-debris", "lat": -7.192765469628829, "lon": 82.72305363253103, "alt_km": 829.2512009530101, "timestamp": "2025-12-14T20:40:32.052117+00:00", "meta": {"OBJECT_NAME": "FENGYUN 1C DEB", "OBJECT_ID": "1999-025BFU", "EPOCH": "2025-12-12T16:50:43.827360", "MEAN_MOTION": 14.14238017, "ECCENTRICITY": 0.00878038, "INCLINATION": 98.9587, "RA_OF_ASC_NODE": 261.6986, "ARG_OF_PERICENTER": 266.0038, "MEAN_ANOMALY": 93.1094, "EPHEMERIS_TYPE": 0, "CLASSIFICATION_TYPE": "U", "NORAD_CAT_ID": 31074, "ELEMENT_SET_NO": 999, "REV_AT_EPOCH": 95579, "BSTAR": 0.0036102453, "MEAN_MOTION_DOT": 7.109e-05, "MEAN_MOTION_DDOT": 0}, "tle": {"line1": "1 31074U 99025BFU 25346.70189615  .00007109  00000+0  36102-2 0  9997", "line2": "2 31074  98.9587 261.6986 0087803 266.0038  93.1094 14.14238017955794"}}, "geometry": {"type": "Point", "coordinates": [82.72305363253103, -7.192765469628829]}}, {"type": "Feature", "properties": {"norad_id": 31078, "name": "FENGYUN 1C DEB", "group": "fengyun-1c-debris", "lat": -40.209186366689465, "lon": -138.27239775699334, "alt_km": 806.1465202855215, "timestamp": "2025-12-14T20:40:32.052128+00:00", "meta": {"OBJECT_NAME": "FENGYUN 1C DEB", "OBJECT_ID": "1999-025BFY", "EPOCH": "2025-12-13T03:15:55.969344", "MEAN_MOTION": 14.22078805, "ECCENTRICITY": 0.01170235, "INCLINATION": 98.8686, "RA_OF_ASC_NODE": 47.577, "ARG_OF_PERICENTER": 147.7899, "MEAN_ANOMALY": 243.3, "EPHEMERIS_TYPE": 0, "CLASSIFICATION_TYPE": "U", "NORAD_CAT_ID": 31078, "ELEMENT_SET_NO": 999, "REV_AT_EPOCH": 96898, "BSTAR": 0.00087514078, "MEAN_MOTION_DOT": 2.033e-05, "MEAN_MOTION_DDOT": 0}, "tle": {"line1": "1 31078U 99025BFY 25347.13606446  .00002033  00000+0  87514-3 0  9990", "line2": "2 31078  98.8686  47.5770 0117023 147.7899 243.3000 14.22078805968984"}}, "geometry": {"type": "Point", "coordinates": [-138.27239775699334, -40.209186366689465]}}, {"type": "Feature", "properties": {"norad_id": 31081, "name": "FENGYUN 1C DEB", "group": "fengyun-1c-debris", "lat": -52.97644459887804, "lon": 173.41915039540297, "alt_km": 845.0222035287579, "timestamp": "2025-12-14T20:40:32.052138+00:00", "meta": {"OBJECT_NAME": "FENGYUN 1C DEB", "OBJECT_ID": "1999-025BGB", "EPOCH": "2025-12-14T07:41:36.306240", "MEAN_MOTION": 14.06299354, "ECCENTRICITY": 0.00474188, "INCLINATION": 98.7706, "RA_OF_ASC_NODE": 4.7067, "ARG_OF_PERICENTER": 226.4427, "MEAN_ANOMALY": 150.2867, "EPHEMERIS_TYPE": 0, "CLASSIFICATION_TYPE": "U", "NORAD_CAT_ID": 31081, "ELEMENT_SET_NO": 999, "REV_AT_EPOCH": 96483, "BSTAR": 5.6398928e-05, "MEAN_MOTION_DOT": 5.1e-07, "MEAN_MOTION_DDOT": 0}, "tle": {"line1": "1 31081U 99025BGB 25348.32055910  .00000051  00000+0  56399-4 0  9996", "line2": "2 31081  98.7706   4.7067 0047418 226.4427 150.2867 14.06299354964839"}}, "geometry": {"type": "Point", "coordinates": [173.41915039540297, -52.97644459887804]}}, {"type": "Feature", "properties": {"norad_id": 31083, "name": "FENGYUN 1C DEB", "group": "fengyun-1c-debris", "lat": -10.505275423442388, "lon": 108.02122745169059, "alt_km": 676.5248400007267, "timestamp": "2025-12-14T20:40:32.052148+00:00", "meta": {"OBJECT_NAME": "FENGYUN 1C DEB", "OBJECT_ID": "1999-025BGD", "EPOCH": "2025-12-13T14:06:59.965920", "MEAN_MOTION": 14.62067923, "ECCENTRICITY": 0.0031348, "INCLINATION": 98.6456, "RA_OF_ASC_NODE": 105.073, "ARG_OF_PERICENTER": 302.8117, "MEAN_ANOMALY": 188.37, "EPHEMERIS_TYPE": 0, "CLASSIFICATION_TYPE": "U", "NORAD_CAT_ID": 31083, "ELEMENT_SET_NO": 999, "REV_AT_EPOCH": 97722, "BSTAR": 0.0029348054, "MEAN_MOTION_DOT": 0.00014816, "MEAN_MOTION_DDOT": 0}, "tle": {"line1": "1 31083U 99025BGD 25347.58819405  .00014816  00000+0  29348-2 0  9998", "line2": "2 31083  98.6456 105.0730 0031348 302.8117 188.3700 14.62067923977226"}}, "geometry": {"type": "Point", "coordinates": [108.02122745169059, -10.505275423442388]}}, {"type": "Feature", "properties": {"norad_id": 31085, "name": "FENGYUN 1C DEB", "group": "fengyun-1c-debris", "lat": -49.39342314509709, "lon": -0.9171172971392414, "alt_km": 846.4866746933176, "timestamp": "2025-12-14T20:40:32.052158+00:00", "meta": {"OBJECT_NAME": "FENGYUN 1C DEB", "OBJECT_ID": "1999-025BGF", "EPOCH": "2025-12-13T00:39:52.187040", "MEAN_MOTION": 14.30309502, "ECCENTRICITY": 0.00873112, "INCLINATION": 98.9842, "RA_OF_ASC_NODE": 187.8241, "ARG_OF_PERICENTER": 17.2387, "MEAN_ANOMALY": 136.4397, "EPHEMERIS_TYPE": 0, "CLASSIFICATION_TYPE": "U", "NORAD_CAT_ID": 31085, "ELEMENT_SET_NO": 999, "REV_AT_EPOCH": 97720, "BSTAR": 0.00015148743, "MEAN_MOTION_DOT": 3.63e-06, "MEAN_MOTION_DDOT": 0}, "tle": {"line1": "1 31085U 99025BGF 25347.02768735  .00000363  00000+0  15149-3 0  9995", "line2": "2 31085  98.9842 187.8241 0087311  17.2387 136.4397 14.30309502977203"}}, "geometry": {"type": "Point", "coordinates": [-0.9171172971392414, -49.39342314509709]}}, {"type": "Feature", "properties": {"norad_id": 31087, "name": "FENGYUN 1C DEB", "group": "fengyun-1c-debris", "lat": -54.284706924238066, "lon": 177.79693378629975, "alt_km": 618.5602595632745, "timestamp": "2025-12-14T20:40:32.052179+00:00", "meta": {"OBJECT_NAME": "FENGYUN 1C DEB", "OBJECT_ID": "1999-025BGH", "EPOCH": "2025-12-14T08:08:30.840576", "MEAN_MOTION": 14.60331433, "ECCENTRICITY": 0.01718746, "INCLINATION": 98.1028, "RA_OF_ASC_NODE": 8.7148, "ARG_OF_PERICENTER": 285.8922, "MEAN_ANOMALY": 86.7416, "EPHEMERIS_TYPE": 0, "CLASSIFICATION_TYPE": "U", "NORAD_CAT_ID": 31087, "ELEMENT_SET_NO": 999, "REV_AT_EPOCH": 98793, "BSTAR": 0.00094179462, "MEAN_MOTION_DOT": 5.553e-05, "MEAN_MOTION_DDOT": 0}, "tle": {"line1": "1 31087U 99025BGH 25348.33924584  .00005553  00000+0  94179-3 0  9994", "line2": "2 31087  98.1028   8.7148 0171874 285.8922  86.7416 14.60331433987937"}}, "geometry": {"type": "Point", "coordinates": [177.79693378629975, -54.284706924238066]}}, {"type": "Feature", "properties": {"norad_id": 31088, "name": "FENGYUN 1C DEB", "group": "fengyun-1c-debris", "lat": -75.92509279075544, "lon": -172.2101995125499, "alt_km": 821.9467339664461, "timestamp": "2025-12-14T20:40:32.052190+00:00", "meta": {"OBJECT_NAME": "FENGYUN 1C DEB", "OBJECT_ID": "1999-025BGJ", "EPOCH": "2025-12-13T23:52:00.054048", "MEAN_MOTION": 14.28711885, "ECCENTRICITY": 0.00284722, "INCLINATION": 99.4118, "RA_OF_ASC_NODE": 48.2749, "ARG_OF_PERICENTER": 57.9563, "MEAN_ANOMALY": 64.6257, "EPHEMERIS_TYPE": 0, "CLASSIFICATION_TYPE": "U", "NORAD_CAT_ID": 31088, "ELEMENT_SET_NO": 999, "REV_AT_EPOCH": 96567, "BSTAR": 0.0018888091, "MEAN_MOTION_DOT": 4.725e-05, "MEAN_MOTION_DDOT": 0}, "tle": {"line1": "1 31088U 99025BGJ 25347.99444507  .00004725  00000+0  18888-2 0  9990", "line2": "2 31088  99.4118  48.2749 0028472  57.9563  64.6257 14.28711885965674"}}, "geometry": {"type": "Point", "coordinates": [-172.2101995125499, -75.92509279075544]}}, {"type": "Feature", "properties": {"norad_id": 31089, "name": "FENGYUN 1C DEB", "group": "fengyun-1c-debris", "lat": 45.05489241555183, "lon": 121.74938206751634, "alt_km": 1071.6812391866424, "timestamp": "2025-12-14T20:40:32.052200+00:00", "meta": {"OBJECT_NAME": "FENGYUN 1C DEB", "OBJECT_ID": "1999-025BGK", "EPOCH": "2025-12-13T20:59:01.756032", "MEAN_MOTION": 13.88326784, "ECCENTRICITY": 0.02059984, "INCLINATION": 98.9507, "RA_OF_ASC_NODE": 129.8868, "ARG_OF_PERICENTER": 208.438, "MEAN_ANOMALY": 307.1181, "EPHEMERIS_TYPE": 0, "CLASSIFICATION_TYPE": "U", "NORAD_CAT_ID": 31089, "ELEMENT_SET_NO": 999, "REV_AT_EPOCH": 68075, "BSTAR": 0.0010903278, "MEAN_MOTION_DOT": 1.504e-05, "MEAN_MOTION_DDOT": 0}, "tle": {"line1": "1 31089U 99025BGK 25347.87432588  .00001504  00000+0  10903-2 0  9996", "line2": "2 31089  98.9507 129.8868 0205998 208.4380 307.1181 13.88326784680758"}}, "geometry": {"type": "Point", "coordinates": [121.74938206751634, 45.05489241555183]}}, {"type": "Feature", "properties": {"norad_id": 31090, "name": "FENGYUN 1C DEB", "group": "fengyun-1c-debris", "lat": 29.629095389262137, "lon": -81.4843932602651, "alt_km": 429.13293026105293, "timestamp": "2025-12-14T20:40:32.052211+00:00", "meta": {"OBJECT_NAME": "FENGYUN 1C DEB", "OBJECT_ID": "1999-025BGL", "EPOCH": "2025-12-14T05:56:05.839584", "MEAN_MOTION": 15.33626883, "ECCENTRICITY": 0.00549338, "INCLINATION": 98.9826, "RA_OF_ASC_NODE": 92.6081, "ARG_OF_PERICENTER": 127.44, "MEAN_ANOMALY": 233.1854, "EPHEMERIS_TYPE": 0, "CLASSIFICATION_TYPE": "U", "NORAD_CAT_ID": 31090, "ELEMENT_SET_NO": 999, "REV_AT_EPOCH": 861, "BSTAR": 0.0018902237, "MEAN_MOTION_DOT": 0.00064867, "MEAN_MOTION_DDOT": 0}, "tle": {"line1": "1 31090U 99025BGL 25348.24728981  .00064867  00000+0  18902-2 0  9993", "line2": "2 31090  98.9826  92.6081 0054933 127.4400 233.1854 15.33626883  8611"}}, "geometry": {"type": "Point", "coordinates": [-81.4843932602651, 29.629095389262137]}}, {"type": "Feature", "properties": {"norad_id": 31091, "name": "FENGYUN 1C DEB", "group": "fengyun-1c-debris", "lat": 34.33451481251316, "lon": -40.59698717584312, "alt_km": 979.8869907579419, "timestamp": "2025-12-14T20:40:32.052222+00:00", "meta": {"OBJECT_NAME": "FENGYUN 1C DEB", "OBJECT_ID": "1999-025BGM", "EPOCH": "2025-12-10T04:47:50.827776", "MEAN_MOTION": 13.54141266, "ECCENTRICITY": 0.02908089, "INCLINATION": 99.2244, "RA_OF_ASC_NODE": 321.4211, "ARG_OF_PERICENTER": 335.4456, "MEAN_ANOMALY": 23.3063, "EPHEMERIS_TYPE": 0, "CLASSIFICATION_TYPE": "U", "NORAD_CAT_ID": 31091, "ELEMENT_SET_NO": 999, "REV_AT_EPOCH": 61605, "BSTAR": 0.0012568098, "MEAN_MOTION_DOT": 1.075e-05, "MEAN_MOTION_DDOT": 0}, "tle": {"line1": "1 31091U 99025BGM 25344.19989384  .00001075  00000+0  12568-2 0  9994", "line2": "2 31091  99.2244 321.4211 0290808 335.4456  23.3063 13.54141266616055"}}, "geometry": {"type": "Point", "coordinates": [-40.59698717584312, 34.33451481251316]}}]}